[{"OBJECT_NAME":"KL-BETA B","OBJECT_ID":"2021-070B","EPOCH":"2026-03-09T22:27:50.032800","MEAN_MOTION":13.94701565,"ECCENTRICITY":0.00070924,"INCLINATION":88.9968,"RA_OF_ASC_NODE":229.226,"ARG_OF_PERICENTER":75.7139,"MEAN_ANOMALY":284.4824,"EPHEMERIS_TYPE":0,"CLASSIFICATION_TYPE":"U","NORAD_CAT_ID":49060,"ELEMENT_SET_NO":999,"REV_AT_EPOCH":23413,"BSTAR":4.5437163e-5,"MEAN_MOTION_DOT":7.4e-7,"MEAN_MOTION_DDOT":0},{"OBJECT_NAME":"COSMOS 1275 DEB","OBJECT_ID":"1981-053TS","EPOCH":"2026-03-07T04:52:08.253984","MEAN_MOTION":13.87890687,"ECCENTRICITY":0.00488707,"INCLINATION":82.8349,"RA_OF_ASC_NODE":35.2121,"ARG_OF_PERICENTER":211.0064,"MEAN_ANOMALY":208.6601,"EPHEMERIS_TYPE":0,"CLASSIFICATION_TYPE":"U","NORAD_CAT_ID":42202,"ELEMENT_SET_NO":999,"REV_AT_EPOCH":62117,"BSTAR":0.00066326237,"MEAN_MOTION_DOT":8.11e-6,"MEAN_MOTION_DDOT":0}]
